{
  "links" : {
    "next" : "https://api.nasa.gov/neo/rest/v1/feed?start_date=2011-08-16&end_date=2011-08-16&detailed=true&api_key=t0TVs3DtDT2H8Oy2Zy8m2eVrNsAVKAexjcZXUckd",
    "prev" : "https://api.nasa.gov/neo/rest/v1/feed?start_date=2011-08-14&end_date=2011-08-14&detailed=true&api_key=t0TVs3DtDT2H8Oy2Zy8m2eVrNsAVKAexjcZXUckd",
    "self" : "https://api.nasa.gov/neo/rest/v1/feed?start_date=2011-08-15&end_date=2011-08-15&detailed=true&api_key=t0TVs3DtDT2H8Oy2Zy8m2eVrNsAVKAexjcZXUckd"
  },
  "element_count" : 5,
  "near_earth_objects" : {
    "2011-08-15" : [ {
      "links" : {
        "self" : "https://api.nasa.gov/neo/rest/v1/neo/3578829?api_key=t0TVs3DtDT2H8Oy2Zy8m2eVrNsAVKAexjcZXUckd"
      },
      "neo_reference_id" : "3578829",
      "name" : "(2011 SH16)",
      "nasa_jpl_url" : "http://ssd.jpl.nasa.gov/sbdb.cgi?sstr=3578829",
      "absolute_magnitude_h" : 22.0,
      "estimated_diameter" : {
        "kilometers" : {
          "estimated_diameter_min" : 0.1058168859,
          "estimated_diameter_max" : 0.2366137501
        },
        "meters" : {
          "estimated_diameter_min" : 105.8168859331,
          "estimated_diameter_max" : 236.6137501138
        },
        "miles" : {
          "estimated_diameter_min" : 0.0657515442,
          "estimated_diameter_max" : 0.1470249225
        },
        "feet" : {
          "estimated_diameter_min" : 347.1682720448,
          "estimated_diameter_max" : 776.2918559233
        }
      },
      "is_potentially_hazardous_asteroid" : false,
      "close_approach_data" : [ {
        "close_approach_date" : "2011-08-15",
        "epoch_date_close_approach" : 1313391600000,
        "relative_velocity" : {
          "kilometers_per_second" : "3.3294422644",
          "kilometers_per_hour" : "11985.9921519311",
          "miles_per_hour" : "7447.629401293"
        },
        "miss_distance" : {
          "astronomical" : "0.2373823919",
          "lunar" : "92.3417510986",
          "kilometers" : "35511900",
          "miles" : "22066072"
        },
        "orbiting_body" : "Earth"
      } ],
      "orbital_data" : {
        "orbit_id" : "7",
        "orbit_determination_date" : "2017-04-06 08:52:48",
        "orbit_uncertainty" : "9",
        "minimum_orbit_intersection" : ".234329",
        "jupiter_tisserand_invariant" : "3.381",
        "epoch_osculation" : "2455825.5",
        "eccentricity" : ".478235179719658",
        "semi_major_axis" : "2.365739522325238",
        "inclination" : "4.010932750510018",
        "ascending_node_longitude" : "68.21553057065364",
        "orbital_period" : "1329.072936948648",
        "perihelion_distance" : "1.23435965669613",
        "perihelion_argument" : "256.0536218891782",
        "aphelion_distance" : "3.497119387954346",
        "perihelion_time" : "2455789.082501354254",
        "mean_anomaly" : "9.864243825901561",
        "mean_motion" : ".2708654957842312",
        "equinox" : "J2000"
      }
    }, {
      "links" : {
        "self" : "https://api.nasa.gov/neo/rest/v1/neo/3685635?api_key=t0TVs3DtDT2H8Oy2Zy8m2eVrNsAVKAexjcZXUckd"
      },
      "neo_reference_id" : "3685635",
      "name" : "(2014 QE391)",
      "nasa_jpl_url" : "http://ssd.jpl.nasa.gov/sbdb.cgi?sstr=3685635",
      "absolute_magnitude_h" : 22.9,
      "estimated_diameter" : {
        "kilometers" : {
          "estimated_diameter_min" : 0.0699125232,
          "estimated_diameter_max" : 0.1563291544
        },
        "meters" : {
          "estimated_diameter_min" : 69.9125232246,
          "estimated_diameter_max" : 156.3291544087
        },
        "miles" : {
          "estimated_diameter_min" : 0.0434416145,
          "estimated_diameter_max" : 0.097138403
        },
        "feet" : {
          "estimated_diameter_min" : 229.3718026961,
          "estimated_diameter_max" : 512.8909429502
        }
      },
      "is_potentially_hazardous_asteroid" : false,
      "close_approach_data" : [ {
        "close_approach_date" : "2011-08-15",
        "epoch_date_close_approach" : 1313391600000,
        "relative_velocity" : {
          "kilometers_per_second" : "10.2978864998",
          "kilometers_per_hour" : "37072.3913991817",
          "miles_per_hour" : "23035.3423113416"
        },
        "miss_distance" : {
          "astronomical" : "0.4841605214",
          "lunar" : "188.3384399414",
          "kilometers" : "72429384",
          "miles" : "45005532"
        },
        "orbiting_body" : "Earth"
      } ],
      "orbital_data" : {
        "orbit_id" : "5",
        "orbit_determination_date" : "2017-04-06 08:38:55",
        "orbit_uncertainty" : "7",
        "minimum_orbit_intersection" : ".167013",
        "jupiter_tisserand_invariant" : "3.593",
        "epoch_osculation" : "2458000.5",
        "eccentricity" : ".4453648660335164",
        "semi_major_axis" : "2.119235823389171",
        "inclination" : "5.278393181812377",
        "ascending_node_longitude" : "167.1505009224525",
        "orbital_period" : "1126.853237592615",
        "perihelion_distance" : "1.175402644812024",
        "perihelion_argument" : "160.6438346626306",
        "aphelion_distance" : "3.063069001966319",
        "perihelion_time" : "2458022.131762625187",
        "mean_anomaly" : "353.0892202415781",
        "mean_motion" : ".3194737238090527",
        "equinox" : "J2000"
      }
    }, {
      "links" : {
        "self" : "https://api.nasa.gov/neo/rest/v1/neo/3567573?api_key=t0TVs3DtDT2H8Oy2Zy8m2eVrNsAVKAexjcZXUckd"
      },
      "neo_reference_id" : "3567573",
      "name" : "(2011 LJ1)",
      "nasa_jpl_url" : "http://ssd.jpl.nasa.gov/sbdb.cgi?sstr=3567573",
      "absolute_magnitude_h" : 19.3,
      "estimated_diameter" : {
        "kilometers" : {
          "estimated_diameter_min" : 0.3669061375,
          "estimated_diameter_max" : 0.8204270649
        },
        "meters" : {
          "estimated_diameter_min" : 366.9061375314,
          "estimated_diameter_max" : 820.4270648822
        },
        "miles" : {
          "estimated_diameter_min" : 0.2279848336,
          "estimated_diameter_max" : 0.5097895857
        },
        "feet" : {
          "estimated_diameter_min" : 1203.7603322587,
          "estimated_diameter_max" : 2691.6899315481
        }
      },
      "is_potentially_hazardous_asteroid" : false,
      "close_approach_data" : [ {
        "close_approach_date" : "2011-08-15",
        "epoch_date_close_approach" : 1313391600000,
        "relative_velocity" : {
          "kilometers_per_second" : "14.8557950084",
          "kilometers_per_hour" : "53480.8620301954",
          "miles_per_hour" : "33230.9278542622"
        },
        "miss_distance" : {
          "astronomical" : "0.2288545145",
          "lunar" : "89.0244064331",
          "kilometers" : "34236148",
          "miles" : "21273356"
        },
        "orbiting_body" : "Earth"
      } ],
      "orbital_data" : {
        "orbit_id" : "30",
        "orbit_determination_date" : "2017-04-06 08:53:20",
        "orbit_uncertainty" : "2",
        "minimum_orbit_intersection" : ".0704268",
        "jupiter_tisserand_invariant" : "3.129",
        "epoch_osculation" : "2458000.5",
        "eccentricity" : ".6931146134002079",
        "semi_major_axis" : "2.414554288421462",
        "inclination" : "7.405989733327294",
        "ascending_node_longitude" : "140.3601133347235",
        "orbital_period" : "1370.4206324152",
        "perihelion_distance" : ".7409914262684064",
        "perihelion_argument" : "216.6586451422031",
        "aphelion_distance" : "4.088117150574518",
        "perihelion_time" : "2458545.422691325404",
        "mean_anomaly" : "216.8525865438732",
        "mean_motion" : ".2626930677229689",
        "equinox" : "J2000"
      }
    } ]
  }
}